[{"OBJECT_NAME":"FLOCK 4H-18","OBJECT_ID":"2025-276BH","EPOCH":"2026-04-25T17:48:50.702400","MEAN_MOTION":15.19140883,"ECCENTRICITY":0.0003734,"INCLINATION":97.4194,"RA_OF_ASC_NODE":190.0767,"ARG_OF_PERICENTER":186.3165,"MEAN_ANOMALY":173.8023,"EPHEMERIS_TYPE":0,"CLASSIFICATION_TYPE":"U","NORAD_CAT_ID":66721,"ELEMENT_SET_NO":999,"REV_AT_EPOCH":2245,"BSTAR":0.00031929,"MEAN_MOTION_DOT":6.643e-5,"MEAN_MOTION_DDOT":0},{"OBJECT_NAME":"FLOCK 4H-19","OBJECT_ID":"2025-276BJ","EPOCH":"2026-04-25T17:48:35.565984","MEAN_MOTION":15.20445099,"ECCENTRICITY":0.0003278,"INCLINATION":97.4195,"RA_OF_ASC_NODE":190.3861,"ARG_OF_PERICENTER":108.857,"MEAN_ANOMALY":251.3021,"EPHEMERIS_TYPE":0,"CLASSIFICATION_TYPE":"U","NORAD_CAT_ID":66722,"ELEMENT_SET_NO":999,"REV_AT_EPOCH":2176,"BSTAR":0.00026517,"MEAN_MOTION_DOT":5.718e-5,"MEAN_MOTION_DDOT":0},{"OBJECT_NAME":"FLOCK 4H-20","OBJECT_ID":"2025-276BK","EPOCH":"2026-04-25T18:01:24.981312","MEAN_MOTION":15.20524126,"ECCENTRICITY":0.0004147,"INCLINATION":97.4232,"RA_OF_ASC_NODE":190.4471,"ARG_OF_PERICENTER":118.077,"MEAN_ANOMALY":242.0885,"EPHEMERIS_TYPE":0,"CLASSIFICATION_TYPE":"U","NORAD_CAT_ID":66723,"ELEMENT_SET_NO":999,"REV_AT_EPOCH":2172,"BSTAR":0.00035726,"MEAN_MOTION_DOT":7.748e-5,"MEAN_MOTION_DDOT":0},{"OBJECT_NAME":"FLOCK 4H-21","OBJECT_ID":"2025-276BL","EPOCH":"2026-04-25T18:16:28.100640","MEAN_MOTION":15.20188123,"ECCENTRICITY":0.0004014,"INCLINATION":97.4197,"RA_OF_ASC_NODE":190.3644,"ARG_OF_PERICENTER":117.6983,"MEAN_ANOMALY":242.466,"EPHEMERIS_TYPE":0,"CLASSIFICATION_TYPE":"U","NORAD_CAT_ID":66724,"ELEMENT_SET_NO":999,"REV_AT_EPOCH":2172,"BSTAR":0.0002539,"MEAN_MOTION_DOT":5.431e-5,"MEAN_MOTION_DDOT":0},{"OBJECT_NAME":"FLOCK 4H-22","OBJECT_ID":"2025-276BM","EPOCH":"2026-04-25T18:35:51.614016","MEAN_MOTION":15.19509769,"ECCENTRICITY":0.000265,"INCLINATION":97.4187,"RA_OF_ASC_NODE":190.1708,"ARG_OF_PERICENTER":177.1016,"MEAN_ANOMALY":183.0235,"EPHEMERIS_TYPE":0,"CLASSIFICATION_TYPE":"U","NORAD_CAT_ID":66725,"ELEMENT_SET_NO":999,"REV_AT_EPOCH":2246,"BSTAR":0.00030183,"MEAN_MOTION_DOT":6.343e-5,"MEAN_MOTION_DDOT":0},{"OBJECT_NAME":"FLOCK 4H-23","OBJECT_ID":"2025-276BN","EPOCH":"2026-04-25T17:46:19.985376","MEAN_MOTION":15.191157,"ECCENTRICITY":0.0005141,"INCLINATION":97.4256,"RA_OF_ASC_NODE":190.1991,"ARG_OF_PERICENTER":161.0274,"MEAN_ANOMALY":199.1153,"EPHEMERIS_TYPE":0,"CLASSIFICATION_TYPE":"U","NORAD_CAT_ID":66726,"ELEMENT_SET_NO":999,"REV_AT_EPOCH":2245,"BSTAR":0.00031061,"MEAN_MOTION_DOT":6.457e-5,"MEAN_MOTION_DDOT":0},{"OBJECT_NAME":"FLOCK 4H-24","OBJECT_ID":"2025-276BP","EPOCH":"2026-04-25T19:06:57.015072","MEAN_MOTION":15.1921238,"ECCENTRICITY":0.0004254,"INCLINATION":97.425,"RA_OF_ASC_NODE":190.2749,"ARG_OF_PERICENTER":172.8135,"MEAN_ANOMALY":187.3162,"EPHEMERIS_TYPE":0,"CLASSIFICATION_TYPE":"U","NORAD_CAT_ID":66727,"ELEMENT_SET_NO":999,"REV_AT_EPOCH":2246,"BSTAR":0.00029918,"MEAN_MOTION_DOT":6.233e-5,"MEAN_MOTION_DDOT":0},{"OBJECT_NAME":"FLOCK 4H-25","OBJECT_ID":"2025-276BQ","EPOCH":"2026-04-25T18:36:05.654016","MEAN_MOTION":15.20073755,"ECCENTRICITY":0.0002253,"INCLINATION":97.4209,"RA_OF_ASC_NODE":190.3684,"ARG_OF_PERICENTER":102.8958,"MEAN_ANOMALY":257.2528,"EPHEMERIS_TYPE":0,"CLASSIFICATION_TYPE":"U","NORAD_CAT_ID":66728,"ELEMENT_SET_NO":999,"REV_AT_EPOCH":2175,"BSTAR":0.00029564,"MEAN_MOTION_DOT":6.314e-5,"MEAN_MOTION_DDOT":0},{"OBJECT_NAME":"FLOCK 4H-26","OBJECT_ID":"2025-276BR","EPOCH":"2026-04-25T18:00:40.804128","MEAN_MOTION":15.18975781,"ECCENTRICITY":0.0005109,"INCLINATION":97.4205,"RA_OF_ASC_NODE":190.0909,"ARG_OF_PERICENTER":174.3461,"MEAN_ANOMALY":185.7832,"EPHEMERIS_TYPE":0,"CLASSIFICATION_TYPE":"U","NORAD_CAT_ID":66729,"ELEMENT_SET_NO":999,"REV_AT_EPOCH":2245,"BSTAR":0.00031474,"MEAN_MOTION_DOT":6.517e-5,"MEAN_MOTION_DDOT":0},{"OBJECT_NAME":"FLOCK 4H-27","OBJECT_ID":"2025-276BS","EPOCH":"2026-04-25T17:28:59.589408","MEAN_MOTION":15.19802405,"ECCENTRICITY":0.0002256,"INCLINATION":97.4184,"RA_OF_ASC_NODE":190.2291,"ARG_OF_PERICENTER":115.201,"MEAN_ANOMALY":244.9459,"EPHEMERIS_TYPE":0,"CLASSIFICATION_TYPE":"U","NORAD_CAT_ID":66730,"ELEMENT_SET_NO":999,"REV_AT_EPOCH":2246,"BSTAR":0.00025955,"MEAN_MOTION_DOT":5.491e-5,"MEAN_MOTION_DDOT":0},{"OBJECT_NAME":"FLOCK 4H-28","OBJECT_ID":"2025-276BT","EPOCH":"2026-04-25T17:58:34.298112","MEAN_MOTION":15.19029267,"ECCENTRICITY":0.0004689,"INCLINATION":97.4192,"RA_OF_ASC_NODE":190.0695,"ARG_OF_PERICENTER":174.9434,"MEAN_ANOMALY":185.1848,"EPHEMERIS_TYPE":0,"CLASSIFICATION_TYPE":"U","NORAD_CAT_ID":66731,"ELEMENT_SET_NO":999,"REV_AT_EPOCH":2245,"BSTAR":0.00031984,"MEAN_MOTION_DOT":6.634e-5,"MEAN_MOTION_DDOT":0},{"OBJECT_NAME":"FLOCK 4H-29","OBJECT_ID":"2025-276BU","EPOCH":"2026-04-25T20:51:24.041664","MEAN_MOTION":15.19123722,"ECCENTRICITY":0.0003334,"INCLINATION":97.4187,"RA_OF_ASC_NODE":190.1954,"ARG_OF_PERICENTER":178.0811,"MEAN_ANOMALY":182.0437,"EPHEMERIS_TYPE":0,"CLASSIFICATION_TYPE":"U","NORAD_CAT_ID":66732,"ELEMENT_SET_NO":999,"REV_AT_EPOCH":2247,"BSTAR":0.00033997,"MEAN_MOTION_DOT":7.074e-5,"MEAN_MOTION_DDOT":0},{"OBJECT_NAME":"FLOCK 4H-30","OBJECT_ID":"2025-276BV","EPOCH":"2026-04-25T17:38:07.092384","MEAN_MOTION":15.19199098,"ECCENTRICITY":0.0004566,"INCLINATION":97.425,"RA_OF_ASC_NODE":190.1933,"ARG_OF_PERICENTER":173.0651,"MEAN_ANOMALY":187.0647,"EPHEMERIS_TYPE":0,"CLASSIFICATION_TYPE":"U","NORAD_CAT_ID":66733,"ELEMENT_SET_NO":999,"REV_AT_EPOCH":2245,"BSTAR":0.00030258,"MEAN_MOTION_DOT":6.303e-5,"MEAN_MOTION_DDOT":0},{"OBJECT_NAME":"FLOCK 4H-31","OBJECT_ID":"2025-276BW","EPOCH":"2026-04-25T17:52:58.552032","MEAN_MOTION":15.19022509,"ECCENTRICITY":0.0003847,"INCLINATION":97.4184,"RA_OF_ASC_NODE":190.0541,"ARG_OF_PERICENTER":177.6054,"MEAN_ANOMALY":182.52,"EPHEMERIS_TYPE":0,"CLASSIFICATION_TYPE":"U","NORAD_CAT_ID":66734,"ELEMENT_SET_NO":999,"REV_AT_EPOCH":2245,"BSTAR":0.00030984,"MEAN_MOTION_DOT":6.422e-5,"MEAN_MOTION_DDOT":0},{"OBJECT_NAME":"FLOCK 4H-32","OBJECT_ID":"2025-276BX","EPOCH":"2026-04-25T17:44:19.575744","MEAN_MOTION":15.19122951,"ECCENTRICITY":0.0005007,"INCLINATION":97.424,"RA_OF_ASC_NODE":190.172,"ARG_OF_PERICENTER":171.6508,"MEAN_ANOMALY":188.481,"EPHEMERIS_TYPE":0,"CLASSIFICATION_TYPE":"U","NORAD_CAT_ID":66735,"ELEMENT_SET_NO":999,"REV_AT_EPOCH":2245,"BSTAR":0.00030726,"MEAN_MOTION_DOT":6.387e-5,"MEAN_MOTION_DDOT":0},{"OBJECT_NAME":"FLOCK 4H-33","OBJECT_ID":"2025-276BY","EPOCH":"2026-04-25T18:12:43.108128","MEAN_MOTION":15.20326213,"ECCENTRICITY":0.0003809,"INCLINATION":97.4237,"RA_OF_ASC_NODE":190.4462,"ARG_OF_PERICENTER":112.2404,"MEAN_ANOMALY":247.9236,"EPHEMERIS_TYPE":0,"CLASSIFICATION_TYPE":"U","NORAD_CAT_ID":66736,"ELEMENT_SET_NO":999,"REV_AT_EPOCH":2247,"BSTAR":0.00028932,"MEAN_MOTION_DOT":6.224e-5,"MEAN_MOTION_DDOT":0},{"OBJECT_NAME":"FLOCK 4H-34","OBJECT_ID":"2025-276BZ","EPOCH":"2026-04-25T20:31:30.876672","MEAN_MOTION":15.19849291,"ECCENTRICITY":0.0003966,"INCLINATION":97.4252,"RA_OF_ASC_NODE":190.4985,"ARG_OF_PERICENTER":117.6799,"MEAN_ANOMALY":242.4839,"EPHEMERIS_TYPE":0,"CLASSIFICATION_TYPE":"U","NORAD_CAT_ID":66737,"ELEMENT_SET_NO":999,"REV_AT_EPOCH":2173,"BSTAR":0.00031821,"MEAN_MOTION_DOT":6.758e-5,"MEAN_MOTION_DDOT":0}]
