FLOCK 4H-18             
1 66721U 25276BH  26115.74225350  .00006643  00000+0  31929-3 0  9992
2 66721  97.4194 190.0767 0003734 186.3165 173.8023 15.19140883 22452
FLOCK 4H-19             
1 66722U 25276BJ  26115.74207831  .00005718  00000+0  26517-3 0  9996
2 66722  97.4195 190.3861 0003278 108.8570 251.3021 15.20445099 21766
FLOCK 4H-20             
1 66723U 25276BK  26115.75098358  .00007748  00000+0  35726-3 0  9997
2 66723  97.4232 190.4471 0004147 118.0770 242.0885 15.20524126 21728
FLOCK 4H-21             
1 66724U 25276BL  26115.76143635  .00005431  00000+0  25390-3 0  9991
2 66724  97.4197 190.3644 0004014 117.6983 242.4660 15.20188123 21722
FLOCK 4H-22             
1 66725U 25276BM  26115.77490294  .00006343  00000+0  30183-3 0  9998
2 66725  97.4187 190.1708 0002650 177.1016 183.0235 15.19509769 22464
FLOCK 4H-23             
1 66726U 25276BN  26115.74050909  .00006457  00000+0  31061-3 0  9993
2 66726  97.4256 190.1991 0005141 161.0274 199.1153 15.19115700 22456
FLOCK 4H-24             
1 66727U 25276BP  26115.79649323  .00006233  00000+0  29918-3 0  9993
2 66727  97.4250 190.2749 0004254 172.8135 187.3162 15.19212380 22465
FLOCK 4H-25             
1 66728U 25276BQ  26115.77506544  .00006314  00000+0  29564-3 0  9996
2 66728  97.4209 190.3684 0002253 102.8958 257.2528 15.20073755 21759
FLOCK 4H-26             
1 66729U 25276BR  26115.75047227  .00006517  00000+0  31474-3 0  9991
2 66729  97.4205 190.0909 0005109 174.3461 185.7832 15.18975781 22457
FLOCK 4H-27             
1 66730U 25276BS  26115.72846747  .00005491  00000+0  25955-3 0  9991
2 66730  97.4184 190.2291 0002256 115.2010 244.9459 15.19802405 22462
FLOCK 4H-28             
1 66731U 25276BT  26115.74900808  .00006634  00000+0  31984-3 0  9992
2 66731  97.4192 190.0695 0004689 174.9434 185.1848 15.19029267 22456
FLOCK 4H-29             
1 66732U 25276BU  26115.86902826  .00007074  00000+0  33997-3 0  9993
2 66732  97.4187 190.1954 0003334 178.0811 182.0437 15.19123722 22473
FLOCK 4H-30             
1 66733U 25276BV  26115.73480431  .00006303  00000+0  30258-3 0  9994
2 66733  97.4250 190.1933 0004566 173.0651 187.0647 15.19199098 22452
FLOCK 4H-31             
1 66734U 25276BW  26115.74512213  .00006422  00000+0  30984-3 0  9998
2 66734  97.4184 190.0541 0003847 177.6054 182.5200 15.19022509 22458
FLOCK 4H-32             
1 66735U 25276BX  26115.73911546  .00006387  00000+0  30726-3 0  9994
2 66735  97.4240 190.1720 0005007 171.6508 188.4810 15.19122951 22454
FLOCK 4H-33             
1 66736U 25276BY  26115.75883227  .00006224  00000+0  28932-3 0  9997
2 66736  97.4237 190.4462 0003809 112.2404 247.9236 15.20326213 22475
FLOCK 4H-34             
1 66737U 25276BZ  26115.85521848  .00006758  00000+0  31821-3 0  9990
2 66737  97.4252 190.4985 0003966 117.6799 242.4839 15.19849291 21734
